CCSDS_OMM_VERS = 2.0
CREATION_DATE  = 
ORIGINATOR     = 

OBJECT_NAME    = STARLINK-37074
OBJECT_ID      = 2026-042E
CENTER_NAME    = EARTH
REF_FRAME      = TEME
TIME_SYSTEM    = UTC
MEAN_ELEMENT_THEORY = SGP/SGP4

EPOCH          = 2026-03-17T06:00:02.000160
MEAN_MOTION    = 15.80869241
ECCENTRICITY   = .00013179
INCLINATION    = 53.1602
RA_OF_ASC_NODE = 156.8537
ARG_OF_PERICENTER = 104.0334
MEAN_ANOMALY   = 87.8502

EPHEMERIS_TYPE = 0
CLASSIFICATION_TYPE = U
NORAD_CAT_ID   = 68073
ELEMENT_SET_NO = 999
REV_AT_EPOCH   = 326
BSTAR          = .18334997E-3
MEAN_MOTION_DOT = .35631E-3
MEAN_MOTION_DDOT = 0

CCSDS_OMM_VERS = 2.0
CREATION_DATE  = 
ORIGINATOR     = 

OBJECT_NAME    = STARLINK-37045
OBJECT_ID      = 2026-042F
CENTER_NAME    = EARTH
REF_FRAME      = TEME
TIME_SYSTEM    = UTC
MEAN_ELEMENT_THEORY = SGP/SGP4

EPOCH          = 2026-03-17T06:00:02.000160
MEAN_MOTION    = 15.80844000
ECCENTRICITY   = .00011473
INCLINATION    = 53.1601
RA_OF_ASC_NODE = 156.8449
ARG_OF_PERICENTER = 106.4224
MEAN_ANOMALY   = 89.7372

EPHEMERIS_TYPE = 0
CLASSIFICATION_TYPE = U
NORAD_CAT_ID   = 68074
ELEMENT_SET_NO = 999
REV_AT_EPOCH   = 326
BSTAR          = .48221743E-3
MEAN_MOTION_DOT = .95404E-3
MEAN_MOTION_DDOT = 0

CCSDS_OMM_VERS = 2.0
CREATION_DATE  = 
ORIGINATOR     = 

OBJECT_NAME    = STARLINK-37026
OBJECT_ID      = 2026-042G
CENTER_NAME    = EARTH
REF_FRAME      = TEME
TIME_SYSTEM    = UTC
MEAN_ELEMENT_THEORY = SGP/SGP4

EPOCH          = 2026-03-17T06:00:02.000160
MEAN_MOTION    = 15.81271532
ECCENTRICITY   = .0001126
INCLINATION    = 53.1600
RA_OF_ASC_NODE = 156.8361
ARG_OF_PERICENTER = 115.9365
MEAN_ANOMALY   = 84.4325

EPHEMERIS_TYPE = 0
CLASSIFICATION_TYPE = U
NORAD_CAT_ID   = 68075
ELEMENT_SET_NO = 999
REV_AT_EPOCH   = 326
BSTAR          = -.76003599E-2
MEAN_MOTION_DOT = -.1339202E-1
MEAN_MOTION_DDOT = 0

CCSDS_OMM_VERS = 2.0
CREATION_DATE  = 
ORIGINATOR     = 

OBJECT_NAME    = STARLINK-37023
OBJECT_ID      = 2026-042H
CENTER_NAME    = EARTH
REF_FRAME      = TEME
TIME_SYSTEM    = UTC
MEAN_ELEMENT_THEORY = SGP/SGP4

EPOCH          = 2026-03-17T06:00:02.000160
MEAN_MOTION    = 15.80852635
ECCENTRICITY   = .00012786
INCLINATION    = 53.1599
RA_OF_ASC_NODE = 156.8273
ARG_OF_PERICENTER = 96.7502
MEAN_ANOMALY   = 107.9511

EPHEMERIS_TYPE = 0
CLASSIFICATION_TYPE = U
NORAD_CAT_ID   = 68076
ELEMENT_SET_NO = 999
REV_AT_EPOCH   = 326
BSTAR          = .32411325E-3
MEAN_MOTION_DOT = .63683E-3
MEAN_MOTION_DDOT = 0

CCSDS_OMM_VERS = 2.0
CREATION_DATE  = 
ORIGINATOR     = 

OBJECT_NAME    = STARLINK-37036
OBJECT_ID      = 2026-042J
CENTER_NAME    = EARTH
REF_FRAME      = TEME
TIME_SYSTEM    = UTC
MEAN_ELEMENT_THEORY = SGP/SGP4

EPOCH          = 2026-03-17T06:00:02.000160
MEAN_MOTION    = 15.80910214
ECCENTRICITY   = .00008815
INCLINATION    = 53.1600
RA_OF_ASC_NODE = 156.8186
ARG_OF_PERICENTER = 106.4064
MEAN_ANOMALY   = 102.5165

EPHEMERIS_TYPE = 0
CLASSIFICATION_TYPE = U
NORAD_CAT_ID   = 68077
ELEMENT_SET_NO = 999
REV_AT_EPOCH   = 326
BSTAR          = .32597325E-4
MEAN_MOTION_DOT = .575E-4
MEAN_MOTION_DDOT = 0

CCSDS_OMM_VERS = 2.0
CREATION_DATE  = 
ORIGINATOR     = 

OBJECT_NAME    = STARLINK-36973
OBJECT_ID      = 2026-042K
CENTER_NAME    = EARTH
REF_FRAME      = TEME
TIME_SYSTEM    = UTC
MEAN_ELEMENT_THEORY = SGP/SGP4

EPOCH          = 2026-03-17T06:00:02.000160
MEAN_MOTION    = 15.80881981
ECCENTRICITY   = .00009937
INCLINATION    = 53.1600
RA_OF_ASC_NODE = 156.8005
ARG_OF_PERICENTER = 107.9947
MEAN_ANOMALY   = 109.5082

EPHEMERIS_TYPE = 0
CLASSIFICATION_TYPE = U
NORAD_CAT_ID   = 68078
ELEMENT_SET_NO = 999
REV_AT_EPOCH   = 326
BSTAR          = .17132879E-3
MEAN_MOTION_DOT = .3326E-3
MEAN_MOTION_DDOT = 0

CCSDS_OMM_VERS = 2.0
CREATION_DATE  = 
ORIGINATOR     = 

OBJECT_NAME    = STARLINK-37063
OBJECT_ID      = 2026-042L
CENTER_NAME    = EARTH
REF_FRAME      = TEME
TIME_SYSTEM    = UTC
MEAN_ELEMENT_THEORY = SGP/SGP4

EPOCH          = 2026-03-17T06:00:02.000160
MEAN_MOTION    = 15.80891383
ECCENTRICITY   = .00016231
INCLINATION    = 53.1598
RA_OF_ASC_NODE = 156.8094
ARG_OF_PERICENTER = 94.2765
MEAN_ANOMALY   = 118.9241

EPHEMERIS_TYPE = 0
CLASSIFICATION_TYPE = U
NORAD_CAT_ID   = 68079
ELEMENT_SET_NO = 999
REV_AT_EPOCH   = 326
BSTAR          = .25023149E-3
MEAN_MOTION_DOT = .49012E-3
MEAN_MOTION_DDOT = 0

CCSDS_OMM_VERS = 2.0
CREATION_DATE  = 
ORIGINATOR     = 

OBJECT_NAME    = STARLINK-37051
OBJECT_ID      = 2026-042M
CENTER_NAME    = EARTH
REF_FRAME      = TEME
TIME_SYSTEM    = UTC
MEAN_ELEMENT_THEORY = SGP/SGP4

EPOCH          = 2026-03-17T06:00:02.000160
MEAN_MOTION    = 15.80867566
ECCENTRICITY   = .00012916
INCLINATION    = 53.1598
RA_OF_ASC_NODE = 156.7826
ARG_OF_PERICENTER = 100.5096
MEAN_ANOMALY   = 125.5472

EPHEMERIS_TYPE = 0
CLASSIFICATION_TYPE = U
NORAD_CAT_ID   = 68080
ELEMENT_SET_NO = 999
REV_AT_EPOCH   = 326
BSTAR          = .27491941E-3
MEAN_MOTION_DOT = .53887E-3
MEAN_MOTION_DDOT = 0

CCSDS_OMM_VERS = 2.0
CREATION_DATE  = 
ORIGINATOR     = 

OBJECT_NAME    = STARLINK-37066
OBJECT_ID      = 2026-042N
CENTER_NAME    = EARTH
REF_FRAME      = TEME
TIME_SYSTEM    = UTC
MEAN_ELEMENT_THEORY = SGP/SGP4

EPOCH          = 2026-03-17T06:00:02.000160
MEAN_MOTION    = 15.80875191
ECCENTRICITY   = .00016321
INCLINATION    = 53.1603
RA_OF_ASC_NODE = 156.7920
ARG_OF_PERICENTER = 96.6510
MEAN_ANOMALY   = 125.1449

EPHEMERIS_TYPE = 0
CLASSIFICATION_TYPE = U
NORAD_CAT_ID   = 68081
ELEMENT_SET_NO = 999
REV_AT_EPOCH   = 326
BSTAR          = .63527984E-4
MEAN_MOTION_DOT = .11857E-3
MEAN_MOTION_DDOT = 0

CCSDS_OMM_VERS = 2.0
CREATION_DATE  = 
ORIGINATOR     = 

OBJECT_NAME    = STARLINK-37054
OBJECT_ID      = 2026-042P
CENTER_NAME    = EARTH
REF_FRAME      = TEME
TIME_SYSTEM    = UTC
MEAN_ELEMENT_THEORY = SGP/SGP4

EPOCH          = 2026-03-17T06:00:02.000160
MEAN_MOTION    = 15.80871954
ECCENTRICITY   = .00014782
INCLINATION    = 53.1598
RA_OF_ASC_NODE = 156.7741
ARG_OF_PERICENTER = 87.4699
MEAN_ANOMALY   = 142.8650

EPHEMERIS_TYPE = 0
CLASSIFICATION_TYPE = U
NORAD_CAT_ID   = 68082
ELEMENT_SET_NO = 999
REV_AT_EPOCH   = 326
BSTAR          = .14314485E-3
MEAN_MOTION_DOT = .27642E-3
MEAN_MOTION_DDOT = 0

CCSDS_OMM_VERS = 2.0
CREATION_DATE  = 
ORIGINATOR     = 

OBJECT_NAME    = STARLINK-37065
OBJECT_ID      = 2026-042Q
CENTER_NAME    = EARTH
REF_FRAME      = TEME
TIME_SYSTEM    = UTC
MEAN_ELEMENT_THEORY = SGP/SGP4

EPOCH          = 2026-03-17T06:00:02.000160
MEAN_MOTION    = 15.80843746
ECCENTRICITY   = .0001163
INCLINATION    = 53.1602
RA_OF_ASC_NODE = 156.7653
ARG_OF_PERICENTER = 97.6517
MEAN_ANOMALY   = 136.9650

EPHEMERIS_TYPE = 0
CLASSIFICATION_TYPE = U
NORAD_CAT_ID   = 68083
ELEMENT_SET_NO = 999
REV_AT_EPOCH   = 326
BSTAR          = .41433347E-3
MEAN_MOTION_DOT = .81743E-3
MEAN_MOTION_DDOT = 0

CCSDS_OMM_VERS = 2.0
CREATION_DATE  = 
ORIGINATOR     = 

OBJECT_NAME    = STARLINK-37037
OBJECT_ID      = 2026-042R
CENTER_NAME    = EARTH
REF_FRAME      = TEME
TIME_SYSTEM    = UTC
MEAN_ELEMENT_THEORY = SGP/SGP4

EPOCH          = 2026-03-17T06:00:02.000160
MEAN_MOTION    = 15.80875862
ECCENTRICITY   = .00016609
INCLINATION    = 53.1595
RA_OF_ASC_NODE = 156.7564
ARG_OF_PERICENTER = 97.1455
MEAN_ANOMALY   = 141.7311

EPHEMERIS_TYPE = 0
CLASSIFICATION_TYPE = U
NORAD_CAT_ID   = 68084
ELEMENT_SET_NO = 999
REV_AT_EPOCH   = 326
BSTAR          = .9976067E-4
MEAN_MOTION_DOT = .19036E-3
MEAN_MOTION_DDOT = 0

