STARLINK-37074          
1 68073U 26042E   26076.25002315  .00035631  00000+0  18335-3 0  9997
2 68073  53.1602 156.8537 0001317 104.0334  87.8502 15.80869241  3260
STARLINK-37045          
1 68074U 26042F   26076.25002315  .00095404  00000+0  48222-3 0  9990
2 68074  53.1601 156.8449 0001147 106.4224  89.7372 15.80844000  3269
STARLINK-37026          
1 68075U 26042G   26076.25002315 -.01339202  00000+0 -76004-2 0  9999
2 68075  53.1600 156.8361 0001126 115.9365  84.4325 15.81271532  3265
STARLINK-37023          
1 68076U 26042H   26076.25002315  .00063683  00000+0  32411-3 0  9999
2 68076  53.1599 156.8273 0001278  96.7502 107.9511 15.80852635  3268
STARLINK-37036          
1 68077U 26042J   26076.25002315  .00005750  00000+0  32597-4 0  9997
2 68077  53.1600 156.8186 0000881 106.4064 102.5165 15.80910214  3260
STARLINK-36973          
1 68078U 26042K   26076.25002315  .00033260  00000+0  17133-3 0  9993
2 68078  53.1600 156.8005 0000993 107.9947 109.5082 15.80881981  3264
STARLINK-37063          
1 68079U 26042L   26076.25002315  .00049012  00000+0  25023-3 0  9993
2 68079  53.1598 156.8094 0001623  94.2765 118.9241 15.80891383  3264
STARLINK-37051          
1 68080U 26042M   26076.25002315  .00053887  00000+0  27492-3 0  9992
2 68080  53.1598 156.7826 0001291 100.5096 125.5472 15.80867566  3263
STARLINK-37066          
1 68081U 26042N   26076.25002315  .00011857  00000+0  63528-4 0  9995
2 68081  53.1603 156.7920 0001632  96.6510 125.1449 15.80875191  3264
STARLINK-37054          
1 68082U 26042P   26076.25002315  .00027642  00000+0  14314-3 0  9993
2 68082  53.1598 156.7741 0001478  87.4699 142.8650 15.80871954  3266
STARLINK-37065          
1 68083U 26042Q   26076.25002315  .00081743  00000+0  41433-3 0  9998
2 68083  53.1602 156.7653 0001163  97.6517 136.9650 15.80843746  3260
STARLINK-37037          
1 68084U 26042R   26076.25002315  .00019036  00000+0  99761-4 0  9993
2 68084  53.1595 156.7564 0001660  97.1455 141.7311 15.80875862  3263
